[{"OBJECT_NAME":"STARLINK-31279","OBJECT_ID":"2024-041N","EPOCH":"2026-03-09T09:40:15.756096","MEAN_MOTION":15.27575078,"ECCENTRICITY":0.00012748,"INCLINATION":43.0036,"RA_OF_ASC_NODE":312.6672,"ARG_OF_PERICENTER":267.95,"MEAN_ANOMALY":92.1205,"EPHEMERIS_TYPE":0,"CLASSIFICATION_TYPE":"U","NORAD_CAT_ID":59086,"ELEMENT_SET_NO":999,"REV_AT_EPOCH":11427,"BSTAR":-7.780595e-6,"MEAN_MOTION_DOT":-4.76e-6,"MEAN_MOTION_DDOT":0},{"OBJECT_NAME":"OBJECT BC","OBJECT_ID":"2025-313BC","EPOCH":"2026-03-09T04:33:08.504064","MEAN_MOTION":15.29126358,"ECCENTRICITY":0.00084789,"INCLINATION":97.3985,"RA_OF_ASC_NODE":144.811,"ARG_OF_PERICENTER":328.9209,"MEAN_ANOMALY":31.1528,"EPHEMERIS_TYPE":0,"CLASSIFICATION_TYPE":"U","NORAD_CAT_ID":67298,"ELEMENT_SET_NO":999,"REV_AT_EPOCH":789,"BSTAR":0.0026410397,"MEAN_MOTION_DOT":0.00075331,"MEAN_MOTION_DDOT":0}]
